CTC1_L_00072001-01
1 32274U 22710YD  26037.47800926  .00000000  00000+0  00000-0 0  9993
2 32274  60.0000   0.0000 0000000   0.0000   0.0000 14.89338779    16
CTC1_L_00072001-02
1 32275U 26699GO  26037.47800926  .00000000  00000+0  00000-0 0  9994
2 32275  60.0000   0.0000 0000000   0.0000  90.0000 14.89338779    16
CTC1_L_00072001-03
1 32276U 22787BS  26037.47800926  .00000000  00000+0  00000-0 0  9999
2 32276  60.0000   0.0000 0000000   0.0000 180.0000 14.89338779    17
CTC1_L_00072001-04
1 32277U 24431YA  26037.47800926  .00000000  00000+0  00000-0 0  9998
2 32277  60.0000   0.0000 0000000   0.0000 270.0000 14.89338779    18
CTC1_L_00072002-01
1 32278U 22614LL  26037.47800926  .00000000  00000+0  00000-0 0  9990
2 32278  60.0000  12.0000 0000000   0.0000  12.0000 14.89338779    16
CTC1_L_00072002-02
1 32279U 26214HB  26037.47800926  .00000000  00000+0  00000-0 0  9991
2 32279  60.0000  12.0000 0000000   0.0000 102.0000 14.89338779    17
CTC1_L_00072002-03
1 32280U 22743TZ  26037.47800926  .00000000  00000+0  00000-0 0  9996
2 32280  60.0000  12.0000 0000000   0.0000 192.0000 14.89338779    18
CTC1_L_00072002-04
1 32281U 24034KC  26037.47800926  .00000000  00000+0  00000-0 0  9992
2 32281  60.0000  12.0000 0000000   0.0000 282.0000 14.89338779    19
CTC1_L_00072003-01
1 32282U 22671PR  26037.47800926  .00000000  00000+0  00000-0 0  9998
2 32282  60.0000  24.0000 0000000   0.0000  24.0000 14.89338779    17
CTC1_L_00072003-02
1 32283U 26007WI  26037.47800926  .00000000  00000+0  00000-0 0  9996
2 32283  60.0000  24.0000 0000000   0.0000 114.0000 14.89338779    18
CTC1_L_00072003-03
1 32284U 22828RS  26037.47800926  .00000000  00000+0  00000-0 0  9994
2 32284  60.0000  24.0000 0000000   0.0000 204.0000 14.89338779    19
CTC1_L_00072003-04
1 32285U 26444GR  26037.47800926  .00000000  00000+0  00000-0 0  9993
2 32285  60.0000  24.0000 0000000   0.0000 294.0000 14.89338779    19
CTC1_L_00072004-01
1 32286U 26315WI  26037.47800926  .00000000  00000+0  00000-0 0  9991
2 32286  60.0000  36.0000 0000000   0.0000  36.0000 14.89338779    17
CTC1_L_00072004-02
1 32287U 24682TD  26037.47800926  .00000000  00000+0  00000-0 0  9997
2 32287  60.0000  36.0000 0000000   0.0000 126.0000 14.89338779    18
CTC1_L_00072004-03
1 32288U 22699YB  26037.47800926  .00000000  00000+0  00000-0 0  9994
2 32288  60.0000  36.0000 0000000   0.0000 216.0000 14.89338779    19
CTC1_L_00072004-04
1 32289U 23525PR  26037.47800926  .00000000  00000+0  00000-0 0  9994
2 32289  60.0000  36.0000 0000000   0.0000 306.0000 14.89338779    10
CTC1_L_00072005-01
1 32290U 23609LI  26037.47800926  .00000000  00000+0  00000-0 0  9999
2 32290  60.0000  48.0000 0000000   0.0000  48.0000 14.89338779    18
CTC1_L_00072005-02
1 32291U 23798NZ  26037.47800926  .00000000  00000+0  00000-0 0  9999
2 32291  60.0000  48.0000 0000000   0.0000 138.0000 14.89338779    19
CTC1_L_00072005-03
1 32292U 23292VG  26037.47800926  .00000000  00000+0  00000-0 0  9999
2 32292  60.0000  48.0000 0000000   0.0000 228.0000 14.89338779    10
CTC1_L_00072005-04
1 32293U 22889CU  26037.47800926  .00000000  00000+0  00000-0 0  9991
2 32293  60.0000  48.0000 0000000   0.0000 318.0000 14.89338779    11
CTC1_L_00072006-01
1 32294U 24128FM  26037.47800926  .00000000  00000+0  00000-0 0  9990
2 32294  60.0000  60.0000 0000000   0.0000  60.0000 14.89338779    10
CTC1_L_00072006-02
1 32295U 22254JX  26037.47800926  .00000000  00000+0  00000-0 0  9999
2 32295  60.0000  60.0000 0000000   0.0000 150.0000 14.89338779    11
CTC1_L_00072006-03
1 32296U 26450BA  26037.47800926  .00000000  00000+0  00000-0 0  9992
2 32296  60.0000  60.0000 0000000   0.0000 240.0000 14.89338779    12
CTC1_L_00072006-04
1 32297U 22878UP  26037.47800926  .00000000  00000+0  00000-0 0  9993
2 32297  60.0000  60.0000 0000000   0.0000 330.0000 14.89338779    13
CTC1_L_00072007-01
1 32298U 23493GW  26037.47800926  .00000000  00000+0  00000-0 0  9998
2 32298  60.0000  72.0000 0000000   0.0000  72.0000 14.89338779    10
CTC1_L_00072007-02
1 32299U 22153BY  26037.47800926  .00000000  00000+0  00000-0 0  9991
2 32299  60.0000  72.0000 0000000   0.0000 162.0000 14.89338779    11
CTC1_L_00072007-03
1 32300U 25159WC  26037.47800926  .00000000  00000+0  00000-0 0  9993
2 32300  60.0000  72.0000 0000000   0.0000 252.0000 14.89338779    14
CTC1_L_00072007-04
1 32301U 26234VE  26037.47800926  .00000000  00000+0  00000-0 0  9999
2 32301  60.0000  72.0000 0000000   0.0000 342.0000 14.89338779    15
CTC1_L_00072008-01
1 32302U 23975LR  26037.47800926  .00000000  00000+0  00000-0 0  9999
2 32302  60.0000  84.0000 0000000   0.0000  84.0000 14.89338779    12
CTC1_L_00072008-02
1 32303U 26630QV  26037.47800926  .00000000  00000+0  00000-0 0  9991
2 32303  60.0000  84.0000 0000000   0.0000 174.0000 14.89338779    13
CTC1_L_00072008-03
1 32304U 22018LL  26037.47800926  .00000000  00000+0  00000-0 0  9998
2 32304  60.0000  84.0000 0000000   0.0000 264.0000 14.89338779    14
CTC1_L_00072008-04
1 32305U 25695IJ  26037.47800926  .00000000  00000+0  00000-0 0  9993
2 32305  60.0000  84.0000 0000000   0.0000 354.0000 14.89338779    15
CTC1_L_00072009-01
1 32306U 25012R   26037.47800926  .00000000  00000+0  00000-0 0  9997
2 32306  60.0000  96.0000 0000000   0.0000  96.0000 14.89338779    12
CTC1_L_00072009-02
1 32307U 22787UP  26037.47800926  .00000000  00000+0  00000-0 0  9994
2 32307  60.0000  96.0000 0000000   0.0000 186.0000 14.89338779    13
CTC1_L_00072009-03
1 32308U 24258OK  26037.47800926  .00000000  00000+0  00000-0 0  9990
2 32308  60.0000  96.0000 0000000   0.0000 276.0000 14.89338779    14
CTC1_L_00072009-04
1 32309U 22996OS  26037.47800926  .00000000  00000+0  00000-0 0  9998
2 32309  60.0000  96.0000 0000000   0.0000   6.0000 14.89338779    16
CTC1_L_00072010-01
1 32310U 26330MG  26037.47800926  .00000000  00000+0  00000-0 0  9996
2 32310  60.0000 108.0000 0000000   0.0000 108.0000 14.89338779    15
CTC1_L_00072010-02
1 32311U 24070NL  26037.47800926  .00000000  00000+0  00000-0 0  9996
2 32311  60.0000 108.0000 0000000   0.0000 198.0000 14.89338779    15
CTC1_L_00072010-03
1 32312U 25644YJ  26037.47800926  .00000000  00000+0  00000-0 0  9995
2 32312  60.0000 108.0000 0000000   0.0000 288.0000 14.89338779    16
CTC1_L_00072010-04
1 32313U 23613XD  26037.47800926  .00000000  00000+0  00000-0 0  9990
2 32313  60.0000 108.0000 0000000   0.0000  18.0000 14.89338779    18
CTC1_L_00072011-01
1 32314U 25253NK  26037.47800926  .00000000  00000+0  00000-0 0  9993
2 32314  60.0000 120.0000 0000000   0.0000 120.0000 14.89338779    17
CTC1_L_00072011-02
1 32315U 24537EB  26037.47800926  .00000000  00000+0  00000-0 0  9998
2 32315  60.0000 120.0000 0000000   0.0000 210.0000 14.89338779    18
CTC1_L_00072011-03
1 32316U 24325UU  26037.47800926  .00000000  00000+0  00000-0 0  9994
2 32316  60.0000 120.0000 0000000   0.0000 300.0000 14.89338779    19
CTC1_L_00072011-04
1 32317U 25080OH  26037.47800926  .00000000  00000+0  00000-0 0  9994
2 32317  60.0000 120.0000 0000000   0.0000  30.0000 14.89338779    10
CTC1_L_00072012-01
1 32318U 25278FI  26037.47800926  .00000000  00000+0  00000-0 0  9994
2 32318  60.0000 132.0000 0000000   0.0000 132.0000 14.89338779    17
CTC1_L_00072012-02
1 32319U 25072EB  26037.47800926  .00000000  00000+0  00000-0 0  9997
2 32319  60.0000 132.0000 0000000   0.0000 222.0000 14.89338779    18
CTC1_L_00072012-03
1 32320U 25648IF  26037.47800926  .00000000  00000+0  00000-0 0  9998
2 32320  60.0000 132.0000 0000000   0.0000 312.0000 14.89338779    10
CTC1_L_00072012-04
1 32321U 24186MQ  26037.47800926  .00000000  00000+0  00000-0 0  9995
2 32321  60.0000 132.0000 0000000   0.0000  42.0000 14.89338779    11
CTC1_L_00072013-01
1 32322U 24622PO  26037.47800926  .00000000  00000+0  00000-0 0  9991
2 32322  60.0000 144.0000 0000000   0.0000 144.0000 14.89338779    18
CTC1_L_00072013-02
1 32323U 23750VD  26037.47800926  .00000000  00000+0  00000-0 0  9993
2 32323  60.0000 144.0000 0000000   0.0000 234.0000 14.89338779    19
CTC1_L_00072013-03
1 32324U 22376OM  26037.47800926  .00000000  00000+0  00000-0 0  9997
2 32324  60.0000 144.0000 0000000   0.0000 324.0000 14.89338779    10
CTC1_L_00072013-04
1 32325U 24152JW  26037.47800926  .00000000  00000+0  00000-0 0  9992
2 32325  60.0000 144.0000 0000000   0.0000  54.0000 14.89338779    11
CTC1_L_00072014-01
1 32326U 23425CM  26037.47800926  .00000000  00000+0  00000-0 0  9995
2 32326  60.0000 156.0000 0000000   0.0000 156.0000 14.89338779    18
CTC1_L_00072014-02
1 32327U 23729EG  26037.47800926  .00000000  00000+0  00000-0 0  9993
2 32327  60.0000 156.0000 0000000   0.0000 246.0000 14.89338779    19
CTC1_L_00072014-03
1 32328U 26030LM  26037.47800926  .00000000  00000+0  00000-0 0  9992
2 32328  60.0000 156.0000 0000000   0.0000 336.0000 14.89338779    10
CTC1_L_00072014-04
1 32329U 23122HU  26037.47800926  .00000000  00000+0  00000-0 0  9992
2 32329  60.0000 156.0000 0000000   0.0000  66.0000 14.89338779    11
CTC1_L_00072015-01
1 32330U 26499QN  26037.47800926  .00000000  00000+0  00000-0 0  9994
2 32330  60.0000 168.0000 0000000   0.0000 168.0000 14.89338779    19
CTC1_L_00072015-02
1 32331U 23626SF  26037.47800926  .00000000  00000+0  00000-0 0  9994
2 32331  60.0000 168.0000 0000000   0.0000 258.0000 14.89338779    10
CTC1_L_00072015-03
1 32332U 23795EC  26037.47800926  .00000000  00000+0  00000-0 0  9992
2 32332  60.0000 168.0000 0000000   0.0000 348.0000 14.89338779    11
CTC1_L_00072015-04
1 32333U 26391BF  26037.47800926  .00000000  00000+0  00000-0 0  9998
2 32333  60.0000 168.0000 0000000   0.0000  78.0000 14.89338779    12
CTC1_L_00072016-01
1 32334U 26831DM  26037.47800926  .00000000  00000+0  00000-0 0  9998
2 32334  60.0000 180.0000 0000000   0.0000 180.0000 14.89338779    11
CTC1_L_00072016-02
1 32335U 26589CG  26037.47800926  .00000000  00000+0  00000-0 0  9999
2 32335  60.0000 180.0000 0000000   0.0000 270.0000 14.89338779    12
